CCSDS_OMM_VERS = 2.0
CREATION_DATE  = 
ORIGINATOR     = 

OBJECT_NAME    = SL-14 R/B
OBJECT_ID      = 1986-046B
CENTER_NAME    = EARTH
REF_FRAME      = TEME
TIME_SYSTEM    = UTC
MEAN_ELEMENT_THEORY = SGP/SGP4

EPOCH          = 2026-02-12T14:47:33.662976
MEAN_MOTION    = 14.85565809
ECCENTRICITY   = .0021933
INCLINATION    = 82.4808
RA_OF_ASC_NODE = 103.8775
ARG_OF_PERICENTER = 313.5539
MEAN_ANOMALY   = 46.3855

EPHEMERIS_TYPE = 0
CLASSIFICATION_TYPE = U
NORAD_CAT_ID   = 16792
ELEMENT_SET_NO = 999
REV_AT_EPOCH   = 12268
BSTAR          = .49023E-4
MEAN_MOTION_DOT = .449E-5
MEAN_MOTION_DDOT = 0

CCSDS_OMM_VERS = 2.0
CREATION_DATE  = 
ORIGINATOR     = 

OBJECT_NAME    = SL-14 R/B
OBJECT_ID      = 1986-055B
CENTER_NAME    = EARTH
REF_FRAME      = TEME
TIME_SYSTEM    = UTC
MEAN_ELEMENT_THEORY = SGP/SGP4

EPOCH          = 2026-02-12T19:50:09.960288
MEAN_MOTION    = 14.85616919
ECCENTRICITY   = .0020144
INCLINATION    = 82.5235
RA_OF_ASC_NODE = 150.0366
ARG_OF_PERICENTER = 57.2237
MEAN_ANOMALY   = 66.3051

EPHEMERIS_TYPE = 0
CLASSIFICATION_TYPE = U
NORAD_CAT_ID   = 16882
ELEMENT_SET_NO = 999
REV_AT_EPOCH   = 11567
BSTAR          = .59046E-4
MEAN_MOTION_DOT = .537E-5
MEAN_MOTION_DDOT = 0

CCSDS_OMM_VERS = 2.0
CREATION_DATE  = 
ORIGINATOR     = 

OBJECT_NAME    = AJISAI (EGS)
OBJECT_ID      = 1986-061A
CENTER_NAME    = EARTH
REF_FRAME      = TEME
TIME_SYSTEM    = UTC
MEAN_ELEMENT_THEORY = SGP/SGP4

EPOCH          = 2026-02-12T20:17:22.193664
MEAN_MOTION    = 12.44515353
ECCENTRICITY   = .0011237
INCLINATION    = 50.0080
RA_OF_ASC_NODE = 169.7436
ARG_OF_PERICENTER = 222.9656
MEAN_ANOMALY   = 318.6868

EPHEMERIS_TYPE = 0
CLASSIFICATION_TYPE = U
NORAD_CAT_ID   = 16908
ELEMENT_SET_NO = 999
REV_AT_EPOCH   = 46490
BSTAR          = -.76723E-4
MEAN_MOTION_DOT = -.108E-5
MEAN_MOTION_DDOT = 0

CCSDS_OMM_VERS = 2.0
CREATION_DATE  = 
ORIGINATOR     = 

OBJECT_NAME    = COSMOS 1812
OBJECT_ID      = 1987-003A
CENTER_NAME    = EARTH
REF_FRAME      = TEME
TIME_SYSTEM    = UTC
MEAN_ELEMENT_THEORY = SGP/SGP4

EPOCH          = 2026-02-12T19:32:31.423776
MEAN_MOTION    = 15.97751931
ECCENTRICITY   = .0002037
INCLINATION    = 82.4761
RA_OF_ASC_NODE = 223.9045
ARG_OF_PERICENTER = 306.6227
MEAN_ANOMALY   = 53.4862

EPHEMERIS_TYPE = 0
CLASSIFICATION_TYPE = U
NORAD_CAT_ID   = 17295
ELEMENT_SET_NO = 999
REV_AT_EPOCH   = 14048
BSTAR          = .76391E-3
MEAN_MOTION_DOT = .341539E-2
MEAN_MOTION_DDOT = .45977E-4

CCSDS_OMM_VERS = 2.0
CREATION_DATE  = 
ORIGINATOR     = 

OBJECT_NAME    = SL-14 R/B
OBJECT_ID      = 1987-024B
CENTER_NAME    = EARTH
REF_FRAME      = TEME
TIME_SYSTEM    = UTC
MEAN_ELEMENT_THEORY = SGP/SGP4

EPOCH          = 2026-02-12T14:11:52.638144
MEAN_MOTION    = 14.86107969
ECCENTRICITY   = .0017818
INCLINATION    = 82.5285
RA_OF_ASC_NODE = 116.3539
ARG_OF_PERICENTER = 348.7739
MEAN_ANOMALY   = 11.3077

EPHEMERIS_TYPE = 0
CLASSIFICATION_TYPE = U
NORAD_CAT_ID   = 17567
ELEMENT_SET_NO = 999
REV_AT_EPOCH   = 8440
BSTAR          = .50143E-4
MEAN_MOTION_DOT = .465E-5
MEAN_MOTION_DDOT = 0

CCSDS_OMM_VERS = 2.0
CREATION_DATE  = 
ORIGINATOR     = 

OBJECT_NAME    = COSMOS 1833
OBJECT_ID      = 1987-027A
CENTER_NAME    = EARTH
REF_FRAME      = TEME
TIME_SYSTEM    = UTC
MEAN_ELEMENT_THEORY = SGP/SGP4

EPOCH          = 2026-02-12T09:01:30.540288
MEAN_MOTION    = 14.13057093
ECCENTRICITY   = .0024913
INCLINATION    = 70.9220
RA_OF_ASC_NODE = 19.2176
ARG_OF_PERICENTER = 248.5586
MEAN_ANOMALY   = 111.2878

EPHEMERIS_TYPE = 0
CLASSIFICATION_TYPE = U
NORAD_CAT_ID   = 17589
ELEMENT_SET_NO = 999
REV_AT_EPOCH   = 674
BSTAR          = .35025149E-4
MEAN_MOTION_DOT = .17E-6
MEAN_MOTION_DDOT = 0

CCSDS_OMM_VERS = 2.0
CREATION_DATE  = 
ORIGINATOR     = 

OBJECT_NAME    = SL-16 R/B
OBJECT_ID      = 1987-027B
CENTER_NAME    = EARTH
REF_FRAME      = TEME
TIME_SYSTEM    = UTC
MEAN_ELEMENT_THEORY = SGP/SGP4

EPOCH          = 2026-02-12T18:37:22.226016
MEAN_MOTION    = 14.17162831
ECCENTRICITY   = .0004835
INCLINATION    = 71.0046
RA_OF_ASC_NODE = 328.9935
ARG_OF_PERICENTER = 186.7534
MEAN_ANOMALY   = 173.3525

EPHEMERIS_TYPE = 0
CLASSIFICATION_TYPE = U
NORAD_CAT_ID   = 17590
ELEMENT_SET_NO = 999
REV_AT_EPOCH   = 1181
BSTAR          = -.34691E-4
MEAN_MOTION_DOT = -.118E-5
MEAN_MOTION_DDOT = 0

CCSDS_OMM_VERS = 2.0
CREATION_DATE  = 
ORIGINATOR     = 

OBJECT_NAME    = SL-14 R/B
OBJECT_ID      = 1987-038B
CENTER_NAME    = EARTH
REF_FRAME      = TEME
TIME_SYSTEM    = UTC
MEAN_ELEMENT_THEORY = SGP/SGP4

EPOCH          = 2026-02-12T18:37:01.661088
MEAN_MOTION    = 14.85345080
ECCENTRICITY   = .0017753
INCLINATION    = 82.5039
RA_OF_ASC_NODE = 320.2727
ARG_OF_PERICENTER = 245.4013
MEAN_ANOMALY   = 114.5353

EPHEMERIS_TYPE = 0
CLASSIFICATION_TYPE = U
NORAD_CAT_ID   = 17912
ELEMENT_SET_NO = 999
REV_AT_EPOCH   = 7553
BSTAR          = .58239E-4
MEAN_MOTION_DOT = .526E-5
MEAN_MOTION_DDOT = 0

CCSDS_OMM_VERS = 2.0
CREATION_DATE  = 
ORIGINATOR     = 

OBJECT_NAME    = COSMOS 1844
OBJECT_ID      = 1987-041A
CENTER_NAME    = EARTH
REF_FRAME      = TEME
TIME_SYSTEM    = UTC
MEAN_ELEMENT_THEORY = SGP/SGP4

EPOCH          = 2026-02-12T12:12:35.872128
MEAN_MOTION    = 14.14544310
ECCENTRICITY   = .00289446
INCLINATION    = 70.8980
RA_OF_ASC_NODE = 87.2918
ARG_OF_PERICENTER = 58.1650
MEAN_ANOMALY   = 302.2284

EPHEMERIS_TYPE = 0
CLASSIFICATION_TYPE = U
NORAD_CAT_ID   = 17973
ELEMENT_SET_NO = 999
REV_AT_EPOCH   = 2
BSTAR          = .25826306E-3
MEAN_MOTION_DOT = .45E-5
MEAN_MOTION_DDOT = 0

CCSDS_OMM_VERS = 2.0
CREATION_DATE  = 
ORIGINATOR     = 

OBJECT_NAME    = SL-14 R/B
OBJECT_ID      = 1987-055B
CENTER_NAME    = EARTH
REF_FRAME      = TEME
TIME_SYSTEM    = UTC
MEAN_ELEMENT_THEORY = SGP/SGP4

EPOCH          = 2026-02-12T10:05:08.145024
MEAN_MOTION    = 14.85597814
ECCENTRICITY   = .00223224
INCLINATION    = 82.5002
RA_OF_ASC_NODE = 12.8426
ARG_OF_PERICENTER = 96.4818
MEAN_ANOMALY   = 263.8940

EPHEMERIS_TYPE = 0
CLASSIFICATION_TYPE = U
NORAD_CAT_ID   = 18153
ELEMENT_SET_NO = 999
REV_AT_EPOCH   = 6618
BSTAR          = .70595913E-4
MEAN_MOTION_DOT = .638E-5
MEAN_MOTION_DDOT = 0

CCSDS_OMM_VERS = 2.0
CREATION_DATE  = 
ORIGINATOR     = 

OBJECT_NAME    = COSMOS 1867
OBJECT_ID      = 1987-060A
CENTER_NAME    = EARTH
REF_FRAME      = TEME
TIME_SYSTEM    = UTC
MEAN_ELEMENT_THEORY = SGP/SGP4

EPOCH          = 2026-02-12T06:59:08.699424
MEAN_MOTION    = 14.31498947
ECCENTRICITY   = .0014155
INCLINATION    = 65.0117
RA_OF_ASC_NODE = 17.8303
ARG_OF_PERICENTER = 276.9104
MEAN_ANOMALY   = 83.0370

EPHEMERIS_TYPE = 0
CLASSIFICATION_TYPE = U
NORAD_CAT_ID   = 18187
ELEMENT_SET_NO = 999
REV_AT_EPOCH   = 1630
BSTAR          = .35426E-4
MEAN_MOTION_DOT = -.6E-7
MEAN_MOTION_DDOT = 0

CCSDS_OMM_VERS = 2.0
CREATION_DATE  = 
ORIGINATOR     = 

OBJECT_NAME    = SL-14 R/B
OBJECT_ID      = 1988-001B
CENTER_NAME    = EARTH
REF_FRAME      = TEME
TIME_SYSTEM    = UTC
MEAN_ELEMENT_THEORY = SGP/SGP4

EPOCH          = 2026-02-12T11:32:50.702496
MEAN_MOTION    = 14.85497010
ECCENTRICITY   = .00171732
INCLINATION    = 82.5110
RA_OF_ASC_NODE = 219.0697
ARG_OF_PERICENTER = 325.8818
MEAN_ANOMALY   = 34.1292

EPHEMERIS_TYPE = 0
CLASSIFICATION_TYPE = U
NORAD_CAT_ID   = 18749
ELEMENT_SET_NO = 999
REV_AT_EPOCH   = 3828
BSTAR          = .65026847E-4
MEAN_MOTION_DOT = .586E-5
MEAN_MOTION_DDOT = 0

